GSAT0101 (PRN E11)      
1 37846U 11060A   23291.87721869 -.00000077  00000+0  00000+0 0  9994
2 37846  57.1134   8.0943 0000370   1.1081 358.9464  1.70475829 74548
GSAT0102 (PRN E12)      
1 37847U 11060B   23290.62005838 -.00000077  00000+0  00000+0 0  9998
2 37847  57.1141   8.1284 0001989 302.5067  52.1836  1.70475373 74646
GSAT0103 (PRN E19)      
1 38857U 12055A   23291.91636247  .00000073  00000+0  00000+0 0  9997
2 38857  55.3006 128.2665 0002082 243.6685 116.3840  1.70473629 68431
GSAT0104 (PRN E20)      
1 38858U 12055B   23291.88575444  .00000073  00000+0  00000+0 0  9995
2 38858  55.3005 128.2688 0001267 143.3493 216.7335  1.70473866 68542
GSAT0201 (PRN E18)      
1 40128U 14050A   23292.07952341 -.00000035  00000+0  00000+0 0  9991
2 40128  49.8956 312.7760 1607372 142.0686 230.4435  1.85519305 60281
GSAT0202 (PRN E14)      
1 40129U 14050B   23292.33874584 -.00000033  00000+0  00000+0 0  9991
2 40129  49.9143 311.8380 1605350 142.8888 229.3905  1.85519977 62450
GSAT0203 (PRN E26)      
1 40544U 15017A   23288.72364901 -.00000081  00000+0  00000+0 0  9994
2 40544  56.9076   8.1472 0005456 246.0563 113.9368  1.70476240 53235
GSAT0204 (PRN E22)      
1 40545U 15017B   23288.97740621 -.00000080  00000+0  00000+0 0  9998
2 40545  56.9144   8.1547 0004481 226.1955 133.8184  1.70475808 15623
GSAT0205 (PRN E24)      
1 40889U 15045A   23292.26493096  .00000018  00000+0  00000+0 0  9998
2 40889  55.3406 248.4558 0004375   8.3436 351.6439  1.70472963 50446
GSAT0206 (PRN E30)      
1 40890U 15045B   23290.72582851  .00000014  00000+0  00000+0 0  9993
2 40890  55.3407 248.4937 0002822 345.7114  14.2527  1.70473016 50446
GSAT0209 (PRN E09)      
1 41174U 15079A   23292.07052751  .00000073  00000+0  00000+0 0  9992
2 41174  55.3186 127.9696 0001985 345.9477  14.1195  1.70474186 48202
GSAT0208 (PRN E08)      
1 41175U 15079B   23290.53042985  .00000077  00000+0  00000+0 0  9994
2 41175  55.3162 128.0100 0001460 359.9145   0.1670  1.70474137 48753
GSAT0211 (PRN E02)      
1 41549U 16030A   23291.23811173  .00000016  00000+0  00000+0 0  9991
2 41549  55.4877 248.4647 0004062 325.1873  34.7612  1.70473043 46087
GSAT0210 (PRN E01)      
1 41550U 16030B   23292.11617022  .00000018  00000+0  00000+0 0  9990
2 41550  55.4867 248.4417 0003671 289.1750  70.7649  1.70473321 46091
GSAT0207 (PRN E07)      
1 41859U 16069A   23290.01803075  .00000077  00000+0  00000+0 0  9991
2 41859  54.9808 128.0873 0001791 313.2428  46.8273  1.70474158 42792
GSAT0212 (PRN E03)      
1 41860U 16069B   23289.87264083  .00000078  00000+0  00000+0 0  9996
2 41860  54.9786 128.0882 0001866  26.7782 333.3174  1.70474383 43044
GSAT0213 (PRN E04)      
1 41861U 16069C   23291.99877477  .00000072  00000+0  00000+0 0  9994
2 41861  54.9816 128.0353 0001815 259.3431 100.7095  1.70473006 42948
GSAT0214 (PRN E05)      
1 41862U 16069D   23292.14605015  .00000072  00000+0  00000+0 0  9990
2 41862  54.9797 128.0251 0000864 256.0655 103.9974  1.70472910 43078
GSAT0215 (PRN E21)      
1 43055U 17079A   23291.46130547  .00000017  00000+0  00000+0 0  9994
2 43055  55.4640 248.2838 0003140 284.2826  75.6589  1.70473753 36408
GSAT0216 (PRN E25)      
1 43056U 17079B   23291.75319202  .00000017  00000+0  00000+0 0  9994
2 43056  55.4643 248.2756 0004733 285.9253  74.0005  1.70473886 36427
GSAT0217 (PRN E27)      
1 43057U 17079C   23290.21379650  .00000012  00000+0  00000+0 0  9993
2 43057  55.4631 248.3169 0004336 297.8836  62.0418  1.70473874 36389
GSAT0218 (PRN E31)      
1 43058U 17079D   23291.02043779  .00000015  00000+0  00000+0 0  9997
2 43058  55.4628 248.2923 0005168 281.0495  78.8663  1.70473852 36421
GSAT0221 (PRN E15)      
1 43564U 18060A   23291.50684849 -.00000076  00000+0  00000+0 0  9990
2 43564  57.2890   8.0108 0004067 255.6874 104.3222  1.70476158 32598
GSAT0222 (PRN E33)      
1 43565U 18060B   23292.31157799 -.00000077  00000+0  00000+0 0  9991
2 43565  57.2926   7.9901 0004454 229.0728 130.9431  1.70475857 32649
GSAT0219 (PRN E36)      
1 43566U 18060C   23290.77409615 -.00000077  00000+0  00000+0 0  9997
2 43566  57.2918   8.0337 0003319 261.6285  98.3884  1.70476180 32598
GSAT0220 (PRN E13)      
1 43567U 18060D   23290.99453705 -.00000076  00000+0  00000+0 0  9990
2 43567  57.2913   8.0286 0003548 257.5593 102.4557  1.70476004 32585
GSAT0223 (PRN E34)      
1 49809U 21116A   23288.49755931 -.00000081  00000+0  00000+0 0  9995
2 49809  57.2826   7.9915 0003630 202.5759 155.2898  1.70476396 11547
GSAT0224 (PRN E10)      
1 49810U 21116B   23290.65532750 -.00000077  00000+0  00000+0 0  9995
2 49810  57.2835   7.9318 0002897 196.6310 157.9946  1.70476286 11604
